COSMOS 2242             
1 22626U 93024A   26074.51973443  .00002195  00000+0  19027-3 0  9999
2 22626  82.5150 261.1383 0014921 287.5662  72.3929 14.96574273781262
SL-16 R/B               
1 22803U 93059B   26074.47631162  .00000116  00000+0  80892-4 0  9998
2 22803  70.9930 358.9243 0018190 208.0205 151.9942 14.17231771680352
ARIANE 40 R/B           
1 22830U 93061H   26074.63416000  .00000182  00000+0  82610-4 0  9994
2 22830  98.4905 143.4042 0009572 265.4443  94.5648 14.32864133694955
COSMOS 2278             
1 23087U 94023A   26074.53849056 -.00000098  00000+0 -26648-4 0  9995
2 23087  71.0548 162.8622 0008464   2.7329 357.3839 14.14379511645637
SL-16 R/B               
1 23088U 94023B   26074.37026035 -.00000148  00000+0 -51617-4 0  9992
2 23088  70.9986  58.9556 0005625 280.0561  79.9927 14.15010198646896
SL-16 R/B               
1 23343U 94074B   26074.55972127  .00000439  00000+0  65394-4 0  9992
2 23343  97.7100 105.1397 0006212 189.7597 323.2873 14.79414961688112
SL-16 R/B               
1 23405U 94077B   26074.49100868  .00000249  00000+0  15159-3 0  9994
2 23405  70.9852 340.2856 0002757 204.9483 155.1507 14.15563000617054
ARIANE 40+ R/B          
1 23561U 95021B   26074.16675487  .00000320  00000+0  11598-3 0  9998
2 23561  98.4486 145.5750 0007830 122.0875 292.7605 14.39776848620037
SL-16 R/B               
1 23705U 95058B   26074.63961340  .00000214  00000+0  13349-3 0  9994
2 23705  71.0224 167.7640 0010533 115.0126 245.2092 14.15499215568693
SL-16 R/B               
1 24298U 96051B   26074.61923319  .00000062  00000+0  60082-4 0  9996
2 24298  70.7602 162.6892 0014573 138.8527 221.3695 14.12417180522485
ORBVIEW 2 (SEASTAR)     
1 24883U 97037A   26074.41225810  .00000300  00000+0  12040-3 0  9995
2 24883  98.8577 238.8759 0002946  60.1137 300.0340 14.35499408509294
SL-16 R/B               
1 25400U 98043G   26074.62531487  .00000044  00000+0  37206-4 0  9999
2 25400  98.8262  28.0310 0009912   3.7712 356.3541 14.26051143439834
