CCSDS_OMM_VERS = 2.0
CREATION_DATE  = 
ORIGINATOR     = 

OBJECT_NAME    = COSMOS 2242
OBJECT_ID      = 1993-024A
CENTER_NAME    = EARTH
REF_FRAME      = TEME
TIME_SYSTEM    = UTC
MEAN_ELEMENT_THEORY = SGP/SGP4

EPOCH          = 2026-03-15T12:28:25.054752
MEAN_MOTION    = 14.96574273
ECCENTRICITY   = .00149219
INCLINATION    = 82.5150
RA_OF_ASC_NODE = 261.1383
ARG_OF_PERICENTER = 287.5662
MEAN_ANOMALY   = 72.3929

EPHEMERIS_TYPE = 0
CLASSIFICATION_TYPE = U
NORAD_CAT_ID   = 22626
ELEMENT_SET_NO = 999
REV_AT_EPOCH   = 78126
BSTAR          = .19026951E-3
MEAN_MOTION_DOT = .2195E-4
MEAN_MOTION_DDOT = 0

CCSDS_OMM_VERS = 2.0
CREATION_DATE  = 
ORIGINATOR     = 

OBJECT_NAME    = SL-16 R/B
OBJECT_ID      = 1993-059B
CENTER_NAME    = EARTH
REF_FRAME      = TEME
TIME_SYSTEM    = UTC
MEAN_ELEMENT_THEORY = SGP/SGP4

EPOCH          = 2026-03-15T11:25:53.323968
MEAN_MOTION    = 14.17231771
ECCENTRICITY   = .00181906
INCLINATION    = 70.9930
RA_OF_ASC_NODE = 358.9243
ARG_OF_PERICENTER = 208.0205
MEAN_ANOMALY   = 151.9942

EPHEMERIS_TYPE = 0
CLASSIFICATION_TYPE = U
NORAD_CAT_ID   = 22803
ELEMENT_SET_NO = 999
REV_AT_EPOCH   = 68035
BSTAR          = .80891718E-4
MEAN_MOTION_DOT = .116E-5
MEAN_MOTION_DDOT = 0

CCSDS_OMM_VERS = 2.0
CREATION_DATE  = 
ORIGINATOR     = 

OBJECT_NAME    = ARIANE 40 R/B
OBJECT_ID      = 1993-061H
CENTER_NAME    = EARTH
REF_FRAME      = TEME
TIME_SYSTEM    = UTC
MEAN_ELEMENT_THEORY = SGP/SGP4

EPOCH          = 2026-03-15T15:13:11.424000
MEAN_MOTION    = 14.32864133
ECCENTRICITY   = .0009572
INCLINATION    = 98.4905
RA_OF_ASC_NODE = 143.4042
ARG_OF_PERICENTER = 265.4443
MEAN_ANOMALY   = 94.5648

EPHEMERIS_TYPE = 0
CLASSIFICATION_TYPE = U
NORAD_CAT_ID   = 22830
ELEMENT_SET_NO = 999
REV_AT_EPOCH   = 69495
BSTAR          = .82609565E-4
MEAN_MOTION_DOT = .182E-5
MEAN_MOTION_DDOT = 0

CCSDS_OMM_VERS = 2.0
CREATION_DATE  = 
ORIGINATOR     = 

OBJECT_NAME    = COSMOS 2278
OBJECT_ID      = 1994-023A
CENTER_NAME    = EARTH
REF_FRAME      = TEME
TIME_SYSTEM    = UTC
MEAN_ELEMENT_THEORY = SGP/SGP4

EPOCH          = 2026-03-15T12:55:25.584384
MEAN_MOTION    = 14.14379511
ECCENTRICITY   = .00084642
INCLINATION    = 71.0548
RA_OF_ASC_NODE = 162.8622
ARG_OF_PERICENTER = 2.7329
MEAN_ANOMALY   = 357.3839

EPHEMERIS_TYPE = 0
CLASSIFICATION_TYPE = U
NORAD_CAT_ID   = 23087
ELEMENT_SET_NO = 999
REV_AT_EPOCH   = 64563
BSTAR          = -.26648149E-4
MEAN_MOTION_DOT = -.98E-6
MEAN_MOTION_DDOT = 0

CCSDS_OMM_VERS = 2.0
CREATION_DATE  = 
ORIGINATOR     = 

OBJECT_NAME    = SL-16 R/B
OBJECT_ID      = 1994-023B
CENTER_NAME    = EARTH
REF_FRAME      = TEME
TIME_SYSTEM    = UTC
MEAN_ELEMENT_THEORY = SGP/SGP4

EPOCH          = 2026-03-15T08:53:10.494240
MEAN_MOTION    = 14.15010198
ECCENTRICITY   = .00056252
INCLINATION    = 70.9986
RA_OF_ASC_NODE = 58.9556
ARG_OF_PERICENTER = 280.0561
MEAN_ANOMALY   = 79.9927

EPHEMERIS_TYPE = 0
CLASSIFICATION_TYPE = U
NORAD_CAT_ID   = 23088
ELEMENT_SET_NO = 999
REV_AT_EPOCH   = 64689
BSTAR          = -.51616631E-4
MEAN_MOTION_DOT = -.148E-5
MEAN_MOTION_DDOT = 0

CCSDS_OMM_VERS = 2.0
CREATION_DATE  = 
ORIGINATOR     = 

OBJECT_NAME    = SL-16 R/B
OBJECT_ID      = 1994-074B
CENTER_NAME    = EARTH
REF_FRAME      = TEME
TIME_SYSTEM    = UTC
MEAN_ELEMENT_THEORY = SGP/SGP4

EPOCH          = 2026-03-15T13:25:59.917728
MEAN_MOTION    = 14.79414961
ECCENTRICITY   = .00062127
INCLINATION    = 97.7100
RA_OF_ASC_NODE = 105.1397
ARG_OF_PERICENTER = 189.7597
MEAN_ANOMALY   = 323.2873

EPHEMERIS_TYPE = 0
CLASSIFICATION_TYPE = U
NORAD_CAT_ID   = 23343
ELEMENT_SET_NO = 999
REV_AT_EPOCH   = 68811
BSTAR          = .65394451E-4
MEAN_MOTION_DOT = .439E-5
MEAN_MOTION_DDOT = 0

CCSDS_OMM_VERS = 2.0
CREATION_DATE  = 
ORIGINATOR     = 

OBJECT_NAME    = SL-16 R/B
OBJECT_ID      = 1994-077B
CENTER_NAME    = EARTH
REF_FRAME      = TEME
TIME_SYSTEM    = UTC
MEAN_ELEMENT_THEORY = SGP/SGP4

EPOCH          = 2026-03-15T11:47:03.149952
MEAN_MOTION    = 14.15563000
ECCENTRICITY   = .00027575
INCLINATION    = 70.9852
RA_OF_ASC_NODE = 340.2856
ARG_OF_PERICENTER = 204.9483
MEAN_ANOMALY   = 155.1507

EPHEMERIS_TYPE = 0
CLASSIFICATION_TYPE = U
NORAD_CAT_ID   = 23405
ELEMENT_SET_NO = 999
REV_AT_EPOCH   = 61705
BSTAR          = .15159276E-3
MEAN_MOTION_DOT = .249E-5
MEAN_MOTION_DDOT = 0

CCSDS_OMM_VERS = 2.0
CREATION_DATE  = 
ORIGINATOR     = 

OBJECT_NAME    = ARIANE 40+ R/B
OBJECT_ID      = 1995-021B
CENTER_NAME    = EARTH
REF_FRAME      = TEME
TIME_SYSTEM    = UTC
MEAN_ELEMENT_THEORY = SGP/SGP4

EPOCH          = 2026-03-15T04:00:07.620768
MEAN_MOTION    = 14.39776848
ECCENTRICITY   = .00078307
INCLINATION    = 98.4486
RA_OF_ASC_NODE = 145.5750
ARG_OF_PERICENTER = 122.0875
MEAN_ANOMALY   = 292.7605

EPHEMERIS_TYPE = 0
CLASSIFICATION_TYPE = U
NORAD_CAT_ID   = 23561
ELEMENT_SET_NO = 999
REV_AT_EPOCH   = 62003
BSTAR          = .11597777E-3
MEAN_MOTION_DOT = .32E-5
MEAN_MOTION_DDOT = 0

CCSDS_OMM_VERS = 2.0
CREATION_DATE  = 
ORIGINATOR     = 

OBJECT_NAME    = SL-16 R/B
OBJECT_ID      = 1995-058B
CENTER_NAME    = EARTH
REF_FRAME      = TEME
TIME_SYSTEM    = UTC
MEAN_ELEMENT_THEORY = SGP/SGP4

EPOCH          = 2026-03-15T15:21:02.597760
MEAN_MOTION    = 14.15499215
ECCENTRICITY   = .00105332
INCLINATION    = 71.0224
RA_OF_ASC_NODE = 167.7640
ARG_OF_PERICENTER = 115.0126
MEAN_ANOMALY   = 245.2092

EPHEMERIS_TYPE = 0
CLASSIFICATION_TYPE = U
NORAD_CAT_ID   = 23705
ELEMENT_SET_NO = 999
REV_AT_EPOCH   = 56869
BSTAR          = .13349013E-3
MEAN_MOTION_DOT = .214E-5
MEAN_MOTION_DDOT = 0

CCSDS_OMM_VERS = 2.0
CREATION_DATE  = 
ORIGINATOR     = 

OBJECT_NAME    = SL-16 R/B
OBJECT_ID      = 1996-051B
CENTER_NAME    = EARTH
REF_FRAME      = TEME
TIME_SYSTEM    = UTC
MEAN_ELEMENT_THEORY = SGP/SGP4

EPOCH          = 2026-03-15T14:51:41.747616
MEAN_MOTION    = 14.12417180
ECCENTRICITY   = .00145734
INCLINATION    = 70.7602
RA_OF_ASC_NODE = 162.6892
ARG_OF_PERICENTER = 138.8527
MEAN_ANOMALY   = 221.3695

EPHEMERIS_TYPE = 0
CLASSIFICATION_TYPE = U
NORAD_CAT_ID   = 24298
ELEMENT_SET_NO = 999
REV_AT_EPOCH   = 52248
BSTAR          = .60082154E-4
MEAN_MOTION_DOT = .62E-6
MEAN_MOTION_DDOT = 0

CCSDS_OMM_VERS = 2.0
CREATION_DATE  = 
ORIGINATOR     = 

OBJECT_NAME    = ORBVIEW 2 (SEASTAR)
OBJECT_ID      = 1997-037A
CENTER_NAME    = EARTH
REF_FRAME      = TEME
TIME_SYSTEM    = UTC
MEAN_ELEMENT_THEORY = SGP/SGP4

EPOCH          = 2026-03-15T09:53:39.099840
MEAN_MOTION    = 14.35499408
ECCENTRICITY   = .00029469
INCLINATION    = 98.8577
RA_OF_ASC_NODE = 238.8759
ARG_OF_PERICENTER = 60.1137
MEAN_ANOMALY   = 300.0340

EPHEMERIS_TYPE = 0
CLASSIFICATION_TYPE = U
NORAD_CAT_ID   = 24883
ELEMENT_SET_NO = 999
REV_AT_EPOCH   = 50929
BSTAR          = .12039652E-3
MEAN_MOTION_DOT = .3E-5
MEAN_MOTION_DDOT = 0

CCSDS_OMM_VERS = 2.0
CREATION_DATE  = 
ORIGINATOR     = 

OBJECT_NAME    = SL-16 R/B
OBJECT_ID      = 1998-043G
CENTER_NAME    = EARTH
REF_FRAME      = TEME
TIME_SYSTEM    = UTC
MEAN_ELEMENT_THEORY = SGP/SGP4

EPOCH          = 2026-03-15T15:00:27.204768
MEAN_MOTION    = 14.26051143
ECCENTRICITY   = .00099127
INCLINATION    = 98.8262
RA_OF_ASC_NODE = 28.0310
ARG_OF_PERICENTER = 3.7712
MEAN_ANOMALY   = 356.3541

EPHEMERIS_TYPE = 0
CLASSIFICATION_TYPE = U
NORAD_CAT_ID   = 25400
ELEMENT_SET_NO = 999
REV_AT_EPOCH   = 43983
BSTAR          = .37206393E-4
MEAN_MOTION_DOT = .44E-6
MEAN_MOTION_DDOT = 0

